ONEWEB-0349             
1 49281U 21090C   24309.61265491  .00000236  00000+0  54944-3 0  9997
2 49281  87.9293  31.7325 0001855 102.3338 257.8003 13.20770645152002
ONEWEB-0353             
1 49282U 21090D   24309.52623446 -.00000073  00000+0 -23262-3 0  9996
2 49282  87.9026  46.9610 0001933  98.5456 261.5893 13.14503289150116
ONEWEB-0356             
1 49283U 21090E   24309.61105899 -.00003091  00000+0 -76354-2 0  9996
2 49283  87.9291  31.7259 0002245 125.8170 234.3172 13.20785215152002
ONEWEB-0358             
1 49284U 21090F   24309.48955454  .00000171  00000+0  38850-3 0  9996
2 49284  87.9294  31.7377 0001666 112.0448 248.0862 13.20774879152719
ONEWEB-0359             
1 49285U 21090G   24309.48638705  .00000113  00000+0  24651-3 0  9994
2 49285  87.9294  31.7545 0001303 102.0689 258.0590 13.20774324152692
ONEWEB-0360             
1 49286U 21090H   24309.47692928  .00000147  00000+0  32978-3 0  9999
2 49286  87.9290  31.7613 0001566 101.2938 258.8371 13.20770880152007
ONEWEB-0361             
1 49287U 21090J   24309.60949597  .00000148  00000+0  33229-3 0  9993
2 49287  87.9291  31.7303 0001803 104.1249 256.0085 13.20769424152471
ONEWEB-0362             
1 49288U 21090K   24309.39840060  .00000101  00000+0  21991-3 0  9997
2 49288  87.9173  62.2702 0001517  89.0149 271.1158 13.19724295149127
